start=new Date('2023-01-20T00:00:00.000Z').valueOf();
sats=[{"PERIAPSIS":"348.816","LAUNCH_DATE":"2022-10-28","SITE":"AFWTR","CENTER_NAME":"EARTH","MEAN_ELEMENT_THEORY":"SGP4","OBJECT_ID":"2022-141T","FILE":"3754973","TLE_LINE2":"2 54174  53.2166  90.3649 0001411  83.1369 276.9812 15.73198358 13171","ELEMENT_SET_NO":"999","SEMIMAJOR_AXIS":"6727.900","DECAY_DATE":null,"RA_OF_ASC_NODE":"90.3649","MEAN_ANOMALY":"276.9812","EPOCH":"2023-01-19T10:48:05.853600","COUNTRY_CODE":"US","CLASSIFICATION_TYPE":"U","MEAN_MOTION_DDOT":"0.0000000000000","BSTAR":"-0.00000653110000","OBJECT_NAME":"STARLINK-5248","EPHEMERIS_TYPE":"0","RCS_SIZE":"LARGE","MEAN_MOTION":"15.73198358","REF_FRAME":"TEME","ECCENTRICITY":"0.00014110","INCLINATION":"53.2166","PERIOD":"91.533","OBJECT_TYPE":"PAYLOAD","GP_ID":"223500568","NORAD_CAT_ID":"54174","TLE_LINE1":"1 54174U 22141T   23019.45006775 -.00001536  00000-0 -65311-5 0  9998","TIME_SYSTEM":"UTC","ARG_OF_PERICENTER":"83.1369","MEAN_MOTION_DOT":"-0.00001536","REV_AT_EPOCH":"1317","APOAPSIS":"350.714"},{"ARG_OF_PERICENTER":"93.8320","TIME_SYSTEM":"UTC","REV_AT_EPOCH":"1297","APOAPSIS":"540.977","MEAN_MOTION_DOT":"0.00001216","MEAN_MOTION":"15.08861074","INCLINATION":"53.2132","ECCENTRICITY":"0.00018740","REF_FRAME":"TEME","OBJECT_TYPE":"PAYLOAD","PERIOD":"95.436","TLE_LINE1":"1 54175U 22141U   23019.50618645  .00001216  00000-0  94419-4 0  9993","NORAD_CAT_ID":"54175","GP_ID":"223501303","RA_OF_ASC_NODE":"105.0566","DECAY_DATE":null,"SEMIMAJOR_AXIS":"6917.816","ELEMENT_SET_NO":"999","MEAN_ANOMALY":"266.2886","EPOCH":"2023-01-19T12:08:54.509280","CLASSIFICATION_TYPE":"U","COUNTRY_CODE":"US","RCS_SIZE":"LARGE","EPHEMERIS_TYPE":"0","OBJECT_NAME":"STARLINK-5256","BSTAR":"0.00009441900000","MEAN_MOTION_DDOT":"0.0000000000000","SITE":"AFWTR","LAUNCH_DATE":"2022-10-28","PERIAPSIS":"538.385","FILE":"3754973","TLE_LINE2":"2 54175  53.2132 105.0566 0001874  93.8320 266.2886 15.08861074 12975","OBJECT_ID":"2022-141U","MEAN_ELEMENT_THEORY":"SGP4","CENTER_NAME":"EARTH"},{"OBJECT_TYPE":"PAYLOAD","PERIOD":"95.437","NORAD_CAT_ID":"54176","TLE_LINE1":"1 54176U 22141V   23019.62391325  .00003306  00000-0  22561-3 0  9990","GP_ID":"223502325","MEAN_MOTION":"15.08852729","ECCENTRICITY":"0.00005040","INCLINATION":"53.2196","REF_FRAME":"TEME","ARG_OF_PERICENTER":"100.2031","TIME_SYSTEM":"UTC","APOAPSIS":"540.055","REV_AT_EPOCH":"1299","MEAN_MOTION_DOT":"0.00003306","MEAN_ELEMENT_THEORY":"SGP4","OBJECT_ID":"2022-141V","FILE":"3755060","TLE_LINE2":"2 54176  53.2196 104.3723 0000504 100.2031 259.9018 15.08852729 12999","CENTER_NAME":"EARTH","SITE":"AFWTR","PERIAPSIS":"539.358","LAUNCH_DATE":"2022-10-28","CLASSIFICATION_TYPE":"U","COUNTRY_CODE":"US","EPHEMERIS_TYPE":"0","RCS_SIZE":"LARGE","MEAN_MOTION_DDOT":"0.0000000000000","BSTAR":"0.00022561000000","OBJECT_NAME":"STARLINK-5154","DECAY_DATE":null,"RA_OF_ASC_NODE":"104.3723","ELEMENT_SET_NO":"999","SEMIMAJOR_AXIS":"6917.841","EPOCH":"2023-01-19T14:58:26.104800","MEAN_ANOMALY":"259.9018"},{"INCLINATION":"53.2155","ECCENTRICITY":"0.00009100","REF_FRAME":"TEME","MEAN_MOTION":"15.08835503","TLE_LINE1":"1 54177U 22141W   23019.49882011  .00001807  00000-0  13157-3 0  9998","NORAD_CAT_ID":"54177","GP_ID":"223503356","OBJECT_TYPE":"PAYLOAD","PERIOD":"95.438","REV_AT_EPOCH":"1297","APOAPSIS":"540.389","MEAN_MOTION_DOT":"0.00001807","ARG_OF_PERICENTER":"122.4825","TIME_SYSTEM":"UTC","SITE":"AFWTR","LAUNCH_DATE":"2022-10-28","PERIAPSIS":"539.130","TLE_LINE2":"2 54177  53.2155 105.0121 0000910 122.4825 237.6255 15.08835503 12978","FILE":"3755076","MEAN_ELEMENT_THEORY":"SGP4","OBJECT_ID":"2022-141W","CENTER_NAME":"EARTH","EPOCH":"2023-01-19T11:58:18.057504","MEAN_ANOMALY":"237.6255","RA_OF_ASC_NODE":"105.0121","DECAY_DATE":null,"SEMIMAJOR_AXIS":"6917.894","ELEMENT_SET_NO":"999","RCS_SIZE":"LARGE","EPHEMERIS_TYPE":"0","OBJECT_NAME":"STARLINK-5186","MEAN_MOTION_DDOT":"0.0000000000000","BSTAR":"0.00013157000000","CLASSIFICATION_TYPE":"U","COUNTRY_CODE":"US"},{"CENTER_NAME":"EARTH","OBJECT_ID":"2022-141X","MEAN_ELEMENT_THEORY":"SGP4","FILE":"3755060","TLE_LINE2":"2 54178  53.2188 104.0057 0001306 118.4170 241.6953 15.07206781 12991","PERIAPSIS":"543.838","LAUNCH_DATE":"2022-10-28","SITE":"AFWTR","MEAN_MOTION_DDOT":"0.0000000000000","BSTAR":"0.00008915300000","OBJECT_NAME":"STARLINK-5164","EPHEMERIS_TYPE":"0","RCS_SIZE":"LARGE","COUNTRY_CODE":"US","CLASSIFICATION_TYPE":"U","EPOCH":"2023-01-19T13:37:40.582848","MEAN_ANOMALY":"241.6953","SEMIMAJOR_AXIS":"6922.877","ELEMENT_SET_NO":"999","DECAY_DATE":null,"RA_OF_ASC_NODE":"104.0057","GP_ID":"223502834","NORAD_CAT_ID":"54178","TLE_LINE1":"1 54178U 22141X   23019.56783082  .00001074  00000-0  89153-4 0  9991","PERIOD":"95.541","OBJECT_TYPE":"PAYLOAD","REF_FRAME":"TEME","ECCENTRICITY":"0.00013060","INCLINATION":"53.2188","MEAN_MOTION":"15.07206781","MEAN_MOTION_DOT":"0.00001074","REV_AT_EPOCH":"1299","APOAPSIS":"545.646","TIME_SYSTEM":"UTC","ARG_OF_PERICENTER":"118.4170"},{"OBJECT_ID":"2022-141Y","MEAN_ELEMENT_THEORY":"SGP4","FILE":"3755060","TLE_LINE2":"2 54179  53.2182 104.3905 0000296 129.6958 230.4060 15.08851770 13223","CENTER_NAME":"EARTH","SITE":"AFWTR","PERIAPSIS":"539.505","LAUNCH_DATE":"2022-10-28","CLASSIFICATION_TYPE":"U","COUNTRY_CODE":"US","EPHEMERIS_TYPE":"0","RCS_SIZE":"LARGE","MEAN_MOTION_DDOT":"0.0000000000000","BSTAR":"0.00014773000000","OBJECT_NAME":"STARLINK-5122","RA_OF_ASC_NODE":"104.3905","DECAY_DATE":null,"ELEMENT_SET_NO":"999","SEMIMAJOR_AXIS":"6917.844","EPOCH":"2023-01-19T15:03:44.828352","MEAN_ANOMALY":"230.4060","OBJECT_TYPE":"PAYLOAD","PERIOD":"95.437","NORAD_CAT_ID":"54179","TLE_LINE1":"1 54179U 22141Y   23019.62760218  .00002065  00000-0  14773-3 0  9991","GP_ID":"223502337","MEAN_MOTION":"15.08851770","ECCENTRICITY":"0.00002960","INCLINATION":"53.2182","REF_FRAME":"TEME","ARG_OF_PERICENTER":"129.6958","TIME_SYSTEM":"UTC","REV_AT_EPOCH":"1322","APOAPSIS":"539.914","MEAN_MOTION_DOT":"0.00002065"},{"FILE":"3755063","TLE_LINE2":"2 54180  53.2165 104.5550 0000913  93.9249 266.1848 15.08850176 13214","MEAN_ELEMENT_THEORY":"SGP4","OBJECT_ID":"2022-141Z","CENTER_NAME":"EARTH","SITE":"AFWTR","LAUNCH_DATE":"2022-10-28","PERIAPSIS":"539.083","RCS_SIZE":"LARGE","EPHEMERIS_TYPE":"0","OBJECT_NAME":"STARLINK-5228","MEAN_MOTION_DDOT":"0.0000000000000","BSTAR":"0.00219320000000","CLASSIFICATION_TYPE":"U","COUNTRY_CODE":"US","MEAN_ANOMALY":"266.1848","EPOCH":"2023-01-19T12:56:32.554752","DECAY_DATE":null,"RA_OF_ASC_NODE":"104.5550","SEMIMAJOR_AXIS":"6917.849","ELEMENT_SET_NO":"999","TLE_LINE1":"1 54180U 22141Z   23019.53926568  .00034799  00000-0  21932-2 0  9998","NORAD_CAT_ID":"54180","GP_ID":"223502849","OBJECT_TYPE":"PAYLOAD","PERIOD":"95.437","INCLINATION":"53.2165","ECCENTRICITY":"0.00009130","REF_FRAME":"TEME","MEAN_MOTION":"15.08850176","APOAPSIS":"540.346","REV_AT_EPOCH":"1321","MEAN_MOTION_DOT":"0.00034799","ARG_OF_PERICENTER":"93.9249","TIME_SYSTEM":"UTC"},{"ARG_OF_PERICENTER":"105.5899","TIME_SYSTEM":"UTC","REV_AT_EPOCH":"1296","APOAPSIS":"540.434","MEAN_MOTION_DOT":"0.00020178","MEAN_MOTION":"15.08853865","ECCENTRICITY":"0.00010570","INCLINATION":"53.2170","REF_FRAME":"TEME","OBJECT_TYPE":"PAYLOAD","PERIOD":"95.437","NORAD_CAT_ID":"54181","TLE_LINE1":"1 54181U 22141AA  23019.41783989  .00020178  00000-0  12818-2 0  9993","GP_ID":"223500321","RA_OF_ASC_NODE":"105.2204","DECAY_DATE":null,"ELEMENT_SET_NO":"999","SEMIMAJOR_AXIS":"6917.838","MEAN_ANOMALY":"254.5210","EPOCH":"2023-01-19T10:01:41.366496","CLASSIFICATION_TYPE":"U","COUNTRY_CODE":"US","EPHEMERIS_TYPE":"0","RCS_SIZE":"LARGE","BSTAR":"0.00128180000000","MEAN_MOTION_DDOT":"0.0000000000000","OBJECT_NAME":"STARLINK-5227","SITE":"AFWTR","PERIAPSIS":"538.972","LAUNCH_DATE":"2022-10-28","OBJECT_ID":"2022-141AA","MEAN_ELEMENT_THEORY":"SGP4","TLE_LINE2":"2 54181  53.2170 105.2204 0001057 105.5899 254.5210 15.08853865 12969","FILE":"3754973","CENTER_NAME":"EARTH"},{"ECCENTRICITY":"0.00046740","INCLINATION":"53.2139","REF_FRAME":"TEME","MEAN_MOTION":"15.68356472","NORAD_CAT_ID":"54182","TLE_LINE1":"1 54182U 22141AB  23019.48334074  .00072845  00000-0  63499-3 0  9998","GP_ID":"223500569","OBJECT_TYPE":"PAYLOAD","PERIOD":"91.816","REV_AT_EPOCH":"1315","APOAPSIS":"366.756","MEAN_MOTION_DOT":"0.00072845","ARG_OF_PERICENTER":"33.9505","TIME_SYSTEM":"UTC","SITE":"AFWTR","PERIAPSIS":"360.454","LAUNCH_DATE":"2022-10-28","OBJECT_ID":"2022-141AB","MEAN_ELEMENT_THEORY":"SGP4","TLE_LINE2":"2 54182  53.2139  92.0452 0004674  33.9505 326.1811 15.68356472 13152","FILE":"3754973","CENTER_NAME":"EARTH","EPOCH":"2023-01-19T11:36:00.639936","MEAN_ANOMALY":"326.1811","DECAY_DATE":null,"RA_OF_ASC_NODE":"92.0452","SEMIMAJOR_AXIS":"6741.740","ELEMENT_SET_NO":"999","EPHEMERIS_TYPE":"0","RCS_SIZE":"LARGE","BSTAR":"0.00063499000000","MEAN_MOTION_DDOT":"0.0000000000000","OBJECT_NAME":"STARLINK-5231","CLASSIFICATION_TYPE":"U","COUNTRY_CODE":"US"},{"OBJECT_TYPE":"PAYLOAD","PERIOD":"95.437","NORAD_CAT_ID":"54183","TLE_LINE1":"1 54183U 22141AC  23019.60920140  .00000449  00000-0  46307-4 0  9999","GP_ID":"223503164","MEAN_MOTION":"15.08842310","ECCENTRICITY":"0.00010990","INCLINATION":"53.2160","REF_FRAME":"TEME","ARG_OF_PERICENTER":"86.6496","TIME_SYSTEM":"UTC","APOAPSIS":"540.499","REV_AT_EPOCH":"1322","MEAN_MOTION_DOT":"0.00000449","OBJECT_ID":"2022-141AC","MEAN_ELEMENT_THEORY":"SGP4","FILE":"3755064","TLE_LINE2":"2 54183  53.2160 104.2796 0001099  86.6496 273.4622 15.08842310 13223","CENTER_NAME":"EARTH","SITE":"AFWTR","PERIAPSIS":"538.978","LAUNCH_DATE":"2022-10-28","CLASSIFICATION_TYPE":"U","COUNTRY_CODE":"US","EPHEMERIS_TYPE":"0","RCS_SIZE":"LARGE","BSTAR":"0.00004630700000","MEAN_MOTION_DDOT":"0.0000000000000","OBJECT_NAME":"STARLINK-5239","RA_OF_ASC_NODE":"104.2796","DECAY_DATE":null,"SEMIMAJOR_AXIS":"6917.873","ELEMENT_SET_NO":"999","MEAN_ANOMALY":"273.4622","EPOCH":"2023-01-19T14:37:15.000960"}];
